OBJECT_NAME,OBJECT_ID,EPOCH,MEAN_MOTION,ECCENTRICITY,INCLINATION,RA_OF_ASC_NODE,ARG_OF_PERICENTER,MEAN_ANOMALY,EPHEMERIS_TYPE,CLASSIFICATION_TYPE,NORAD_CAT_ID,ELEMENT_SET_NO,REV_AT_EPOCH,BSTAR,MEAN_MOTION_DOT,MEAN_MOTION_DDOT
LEMUR-1,2014-033AL,2026-06-17T08:40:17.283360,14.85247306,.00496767,97.7876,318.1624,78.0722,282.6056,0,U,40044,999,64549,.1995262E-3,.1695E-4,0
LEMUR-2-GREENBERG,2017-042N,2026-06-17T11:29:53.306016,15.31334775,.00085082,97.3816,349.1017,13.0067,347.1392,0,U,42837,999,48843,.4123969E-3,.12423E-3,0
LEMUR-2-ANDIS,2017-042P,2026-06-17T01:13:56.450784,15.34838886,.00081745,97.3672,348.8597,12.8795,347.2655,0,U,42838,999,48843,.53887421E-3,.18164E-3,0
LEMUR-2-MONSON,2017-042Q,2026-06-17T11:43:25.675104,15.28016395,.00061838,97.4076,349.0830,5.1720,354.9582,0,U,42839,999,48821,.3892843E-3,.10574E-3,0
LEMUR-2-FURIAUS,2017-042R,2026-06-17T11:21:14.840352,15.30258907,.00081756,97.3768,347.0502,68.3707,291.8403,0,U,42840,999,48825,.45598177E-3,.13294E-3,0
LEMUR-2-PETERG,2017-042S,2026-06-17T11:48:34.034112,15.33891942,.00032069,97.3987,353.5221,355.8893,4.2323,0,U,42841,999,48848,.47149495E-3,.15393E-3,0
LEMUR-2-DEMBITZ,2017-042T,2026-06-17T11:49:51.898656,15.30300449,.00067283,97.3822,350.0943,27.8027,332.3572,0,U,42842,999,48839,.4311796E-3,.12577E-3,0
LEMUR-2-ZACHARY,2017-042W,2026-06-17T12:18:22.206528,15.50284724,.00028772,97.3591,0.1557,31.4744,328.6679,0,U,42845,999,48925,.65521649E-3,.37119E-3,0
LEMUR-2-AMANDA-SVANTE,2021-034B,2026-06-17T03:53:01.908096,15.34295333,.00022806,97.5763,246.4469,208.6584,151.4534,0,U,48269,999,28105,.7500383E-3,.24876E-3,0
LEMUR-2-SPECIAL-K,2021-034F,2026-06-17T03:35:06.408672,15.64459645,.00043179,97.5654,255.0033,228.4690,131.6199,0,U,48273,999,28168,.13010011E-2,.126504E-2,0
LEMUR-2-EMBRIONOVIS,2023-084AQ,2026-06-17T07:57:54.861408,15.37551092,.00077324,97.6296,312.5361,319.5567,40.5101,0,U,56970,999,16770,.28629971E-3,.10473E-3,0
LEMUR-2-DEVERILL-M-T,2023-100F,2026-06-17T00:57:24.270336,15.39749302,.00063405,99.4463,206.7553,50.5379,309.6420,0,U,57391,999,16122,.60519463E-3,.23898E-3,0
LEMUR-2-BASS,2023-174D,2026-06-17T03:29:23.809344,15.43093407,.00077259,97.3850,252.8569,162.2720,197.8799,0,U,58259,999,14535,.31246541E-3,.13747E-3,0
LEMUR-2-JK0903EM1407,2023-174CJ,2026-06-16T18:09:49.055328,15.51662320,.00057859,97.3927,258.2139,121.1436,239.0385,0,U,58336,999,14566,.37360933E-3,.22153E-3,0
LEMUR-2-MJR092620,2023-174CN,2026-06-17T11:34:58.852704,15.44883841,.00071448,97.3979,258.5168,116.8150,243.3830,0,U,58340,999,14569,.33071989E-3,.15465E-3,0
LEMUR-2-NIMBUS2000,2024-022A,2026-06-17T12:48:26.957376,15.40005076,.00103518,97.4103,18.5391,114.7949,245.4375,0,U,58899,999,13232,.34279131E-3,.13626E-3,0
LEMUR-2-VALHALLA,2024-022B,2026-06-17T12:43:06.565440,15.39680570,.00108694,97.4101,18.5257,110.9404,249.3006,0,U,58900,999,13232,.32559967E-3,.12802E-3,0
LEMUR-2-CAEL,2024-022E,2026-06-17T12:56:50.486208,15.40983708,.00092636,97.4083,19.4718,96.4011,263.8290,0,U,58903,999,13239,.33548716E-3,.13768E-3,0
LEMUR-2-JOHNNYTRUONG,2024-043BA,2026-06-17T09:45:25.791264,15.60479348,.00048266,97.5382,320.1225,175.9069,184.2228,0,U,59146,999,12807,.40360101E-3,.33183E-3,0
LEMUR-2-TOMATOKECHUP,2024-149D,2026-06-16T23:26:56.559264,15.36030247,.00014401,97.3803,250.0230,175.8194,184.3062,0,U,60471,999,10213,.2797748E-3,.9737E-4,0
LEMUR-2-STELLA,2024-149BT,2026-06-17T03:33:03.735360,15.11810973,.00017086,97.6740,250.6025,95.8157,264.3268,0,U,60533,999,10049,.51414527E-3,.872E-4,0
LEMUR-2-MARHISYAM,2024-149BW,2026-06-17T14:12:06.498432,15.11267356,.00032791,97.6878,251.4975,117.6410,242.5153,0,U,60536,999,10054,.53195871E-3,.889E-4,0
LEMUR-2-AHMED-ASRAR,2024-149DN,2026-06-17T03:53:56.519808,15.12714446,.00018808,97.7011,253.1588,44.7599,315.3783,0,U,60576,999,10056,.51271017E-3,.8917E-4,0
LEMUR-2-LLOYD,2024-149DP,2026-06-17T01:00:53.203680,15.09237949,.00047879,97.6748,249.1706,141.0187,219.1387,0,U,60577,999,10037,.60720375E-3,.9606E-4,0
LEMUR-2-SQUIRRELCOMM,2024-149DQ,2026-06-17T10:54:38.001600,15.07150992,.00062905,97.6706,249.3648,60.5961,299.5894,0,U,60578,999,10044,.3104019E-3,.4605E-4,0
LEMUR-2-SIERRINI,2024-149DR,2026-06-17T03:38:33.607104,15.10947089,.00058743,97.6845,250.7436,164.0442,196.0973,0,U,60579,999,10045,.50436338E-3,.8352E-4,0
LEMUR-2-WILSON,2025-009CP,2026-06-17T03:53:10.572288,14.95165085,.00042568,97.7025,246.6268,58.7754,301.3884,0,U,62694,999,7735,.20851216E-3,.2233E-4,0
LEMUR-2-STAR-FOX,2025-009CR,2026-06-17T03:49:30.301536,15.02504429,.00038522,97.6956,249.7680,111.6733,248.4902,0,U,62696,999,7755,.45789608E-3,.6023E-4,0
LEMUR-2-ARIANNA,2025-009CU,2026-06-17T03:47:06.794592,15.02485733,.00042301,97.6895,249.5413,117.1929,242.9727,0,U,62699,999,7755,.45455726E-3,.5975E-4,0
